CCSDS_OMM_VERS = 2.0
CREATION_DATE  = 
ORIGINATOR     = 

OBJECT_NAME    = UNKNOWN
OBJECT_ID      = 
CENTER_NAME    = EARTH
REF_FRAME      = TEME
TIME_SYSTEM    = UTC
MEAN_ELEMENT_THEORY = SGP/SGP4

EPOCH          = 2026-01-02T09:50:02.806080
MEAN_MOTION    = 14.41143338
ECCENTRICITY   = .0048165
INCLINATION    = 98.4241
RA_OF_ASC_NODE = 338.1443
ARG_OF_PERICENTER = 99.9158
MEAN_ANOMALY   = 51.4272

EPHEMERIS_TYPE = 0
CLASSIFICATION_TYPE = U
NORAD_CAT_ID   = 85004
ELEMENT_SET_NO = 999
REV_AT_EPOCH   = 63387
BSTAR          = .67559E-3
MEAN_MOTION_DOT = .2165E-4
MEAN_MOTION_DDOT = 0

CCSDS_OMM_VERS = 2.0
CREATION_DATE  = 
ORIGINATOR     = 

OBJECT_NAME    = UNKNOWN
OBJECT_ID      = 
CENTER_NAME    = EARTH
REF_FRAME      = TEME
TIME_SYSTEM    = UTC
MEAN_ELEMENT_THEORY = SGP/SGP4

EPOCH          = 2025-12-30T02:15:17.947008
MEAN_MOTION    = 13.75092612
ECCENTRICITY   = .0025077
INCLINATION    = 99.2483
RA_OF_ASC_NODE = 225.4731
ARG_OF_PERICENTER = 209.7149
MEAN_ANOMALY   = 304.2048

EPHEMERIS_TYPE = 0
CLASSIFICATION_TYPE = U
NORAD_CAT_ID   = 85010
ELEMENT_SET_NO = 999
REV_AT_EPOCH   = 60630
BSTAR          = .15968E-2
MEAN_MOTION_DOT = .1487E-4
MEAN_MOTION_DDOT = 0

CCSDS_OMM_VERS = 2.0
CREATION_DATE  = 
ORIGINATOR     = 

OBJECT_NAME    = UNKNOWN
OBJECT_ID      = 
CENTER_NAME    = EARTH
REF_FRAME      = TEME
TIME_SYSTEM    = UTC
MEAN_ELEMENT_THEORY = SGP/SGP4

EPOCH          = 2025-12-27T18:06:58.964832
MEAN_MOTION    = 14.62307629
ECCENTRICITY   = .0016703
INCLINATION    = 74.0489
RA_OF_ASC_NODE = 9.4705
ARG_OF_PERICENTER = 272.8549
MEAN_ANOMALY   = 87.0706

EPHEMERIS_TYPE = 0
CLASSIFICATION_TYPE = U
NORAD_CAT_ID   = 85015
ELEMENT_SET_NO = 999
REV_AT_EPOCH   = 64480
BSTAR          = .14884E-3
MEAN_MOTION_DOT = .722E-5
MEAN_MOTION_DDOT = 0

CCSDS_OMM_VERS = 2.0
CREATION_DATE  = 
ORIGINATOR     = 

OBJECT_NAME    = UNKNOWN
OBJECT_ID      = 
CENTER_NAME    = EARTH
REF_FRAME      = TEME
TIME_SYSTEM    = UTC
MEAN_ELEMENT_THEORY = SGP/SGP4

EPOCH          = 2026-01-02T00:34:48.252576
MEAN_MOTION    = 14.75649464
ECCENTRICITY   = .0001717
INCLINATION    = 99.8485
RA_OF_ASC_NODE = 26.8785
ARG_OF_PERICENTER = 244.8142
MEAN_ANOMALY   = 144.7674

EPHEMERIS_TYPE = 0
CLASSIFICATION_TYPE = U
NORAD_CAT_ID   = 85023
ELEMENT_SET_NO = 999
REV_AT_EPOCH   = 63182
BSTAR          = .77658E-2
MEAN_MOTION_DOT = .53391E-3
MEAN_MOTION_DDOT = 0

CCSDS_OMM_VERS = 2.0
CREATION_DATE  = 
ORIGINATOR     = 

OBJECT_NAME    = UNKNOWN
OBJECT_ID      = 
CENTER_NAME    = EARTH
REF_FRAME      = TEME
TIME_SYSTEM    = UTC
MEAN_ELEMENT_THEORY = SGP/SGP4

EPOCH          = 2026-01-02T12:56:11.582880
MEAN_MOTION    = 13.74257201
ECCENTRICITY   = .0175643
INCLINATION    = 66.0419
RA_OF_ASC_NODE = 50.5751
ARG_OF_PERICENTER = 179.7628
MEAN_ANOMALY   = 180.3551

EPHEMERIS_TYPE = 0
CLASSIFICATION_TYPE = U
NORAD_CAT_ID   = 85027
ELEMENT_SET_NO = 999
REV_AT_EPOCH   = 60747
BSTAR          = .32285E-3
MEAN_MOTION_DOT = .262E-5
MEAN_MOTION_DDOT = 0

CCSDS_OMM_VERS = 2.0
CREATION_DATE  = 
ORIGINATOR     = 

OBJECT_NAME    = UNKNOWN
OBJECT_ID      = 
CENTER_NAME    = EARTH
REF_FRAME      = TEME
TIME_SYSTEM    = UTC
MEAN_ELEMENT_THEORY = SGP/SGP4

EPOCH          = 2026-01-01T21:05:39.739488
MEAN_MOTION    = 13.44867747
ECCENTRICITY   = .0162822
INCLINATION    = 102.1827
RA_OF_ASC_NODE = 336.5384
ARG_OF_PERICENTER = 332.4775
MEAN_ANOMALY   = 26.7796

EPHEMERIS_TYPE = 0
CLASSIFICATION_TYPE = U
NORAD_CAT_ID   = 85047
ELEMENT_SET_NO = 999
REV_AT_EPOCH   = 57936
BSTAR          = .36355E-1
MEAN_MOTION_DOT = .23116E-3
MEAN_MOTION_DDOT = 0

CCSDS_OMM_VERS = 2.0
CREATION_DATE  = 
ORIGINATOR     = 

OBJECT_NAME    = UNKNOWN
OBJECT_ID      = 
CENTER_NAME    = EARTH
REF_FRAME      = TEME
TIME_SYSTEM    = UTC
MEAN_ELEMENT_THEORY = SGP/SGP4

EPOCH          = 2025-12-30T21:41:32.034336
MEAN_MOTION    = 12.77124966
ECCENTRICITY   = .0255472
INCLINATION    = 102.3940
RA_OF_ASC_NODE = 350.3665
ARG_OF_PERICENTER = 156.4897
MEAN_ANOMALY   = 234.1420

EPHEMERIS_TYPE = 0
CLASSIFICATION_TYPE = U
NORAD_CAT_ID   = 85061
ELEMENT_SET_NO = 999
REV_AT_EPOCH   = 55810
BSTAR          = .1947E-1
MEAN_MOTION_DOT = .4828E-4
MEAN_MOTION_DDOT = 0

CCSDS_OMM_VERS = 2.0
CREATION_DATE  = 
ORIGINATOR     = 

OBJECT_NAME    = UNKNOWN
OBJECT_ID      = 
CENTER_NAME    = EARTH
REF_FRAME      = TEME
TIME_SYSTEM    = UTC
MEAN_ELEMENT_THEORY = SGP/SGP4

EPOCH          = 2025-12-28T07:11:28.634208
MEAN_MOTION    = 14.40722397
ECCENTRICITY   = .0011568
INCLINATION    = 74.0437
RA_OF_ASC_NODE = 194.0195
ARG_OF_PERICENTER = 56.0514
MEAN_ANOMALY   = 126.3561

EPHEMERIS_TYPE = 0
CLASSIFICATION_TYPE = U
NORAD_CAT_ID   = 85100
ELEMENT_SET_NO = 999
REV_AT_EPOCH   = 63558
BSTAR          = .15035E-3
MEAN_MOTION_DOT = .454E-5
MEAN_MOTION_DDOT = 0

CCSDS_OMM_VERS = 2.0
CREATION_DATE  = 
ORIGINATOR     = 

OBJECT_NAME    = UNKNOWN
OBJECT_ID      = 
CENTER_NAME    = EARTH
REF_FRAME      = TEME
TIME_SYSTEM    = UTC
MEAN_ELEMENT_THEORY = SGP/SGP4

EPOCH          = 2026-01-02T05:55:17.727744
MEAN_MOTION    = 13.72931317
ECCENTRICITY   = .0008762
INCLINATION    = 100.0520
RA_OF_ASC_NODE = 109.1123
ARG_OF_PERICENTER = 320.7033
MEAN_ANOMALY   = 68.7961

EPHEMERIS_TYPE = 0
CLASSIFICATION_TYPE = U
NORAD_CAT_ID   = 85106
ELEMENT_SET_NO = 999
REV_AT_EPOCH   = 60588
BSTAR          = .11769E-2
MEAN_MOTION_DOT = .1037E-4
MEAN_MOTION_DDOT = 0

CCSDS_OMM_VERS = 2.0
CREATION_DATE  = 
ORIGINATOR     = 

OBJECT_NAME    = UNKNOWN
OBJECT_ID      = 
CENTER_NAME    = EARTH
REF_FRAME      = TEME
TIME_SYSTEM    = UTC
MEAN_ELEMENT_THEORY = SGP/SGP4

EPOCH          = 2026-01-01T14:15:04.748544
MEAN_MOTION    = 14.79544141
ECCENTRICITY   = .0009721
INCLINATION    = 98.4039
RA_OF_ASC_NODE = 231.5146
ARG_OF_PERICENTER = 64.7999
MEAN_ANOMALY   = 295.4218

EPHEMERIS_TYPE = 0
CLASSIFICATION_TYPE = U
NORAD_CAT_ID   = 85151
ELEMENT_SET_NO = 999
REV_AT_EPOCH   = 48246
BSTAR          = .54941E-2
MEAN_MOTION_DOT = .41327E-3
MEAN_MOTION_DDOT = 0

CCSDS_OMM_VERS = 2.0
CREATION_DATE  = 
ORIGINATOR     = 

OBJECT_NAME    = UNKNOWN
OBJECT_ID      = 
CENTER_NAME    = EARTH
REF_FRAME      = TEME
TIME_SYSTEM    = UTC
MEAN_ELEMENT_THEORY = SGP/SGP4

EPOCH          = 2026-01-02T08:31:00.647040
MEAN_MOTION    = 13.71582234
ECCENTRICITY   = .0217539
INCLINATION    = 99.8559
RA_OF_ASC_NODE = 148.9067
ARG_OF_PERICENTER = 261.2108
MEAN_ANOMALY   = 126.0452

EPHEMERIS_TYPE = 0
CLASSIFICATION_TYPE = U
NORAD_CAT_ID   = 85210
ELEMENT_SET_NO = 999
REV_AT_EPOCH   = 60498
BSTAR          = .17819E-2
MEAN_MOTION_DOT = .1853E-4
MEAN_MOTION_DDOT = 0

CCSDS_OMM_VERS = 2.0
CREATION_DATE  = 
ORIGINATOR     = 

OBJECT_NAME    = UNKNOWN
OBJECT_ID      = 
CENTER_NAME    = EARTH
REF_FRAME      = TEME
TIME_SYSTEM    = UTC
MEAN_ELEMENT_THEORY = SGP/SGP4

EPOCH          = 2026-01-01T16:54:36.695232
MEAN_MOTION    = 14.37307647
ECCENTRICITY   = .0208565
INCLINATION    = 98.0303
RA_OF_ASC_NODE = 99.7978
ARG_OF_PERICENTER = 68.2843
MEAN_ANOMALY   = 294.0407

EPHEMERIS_TYPE = 0
CLASSIFICATION_TYPE = U
NORAD_CAT_ID   = 85217
ELEMENT_SET_NO = 999
REV_AT_EPOCH   = 63072
BSTAR          = .99307E-3
MEAN_MOTION_DOT = .3764E-4
MEAN_MOTION_DDOT = 0

