UNKNOWN                 
1 85004U          26002.40975470  .00002165  00000+0  67559-3 0  9991
2 85004  98.4241 338.1443 0048165  99.9158  51.4272 14.41143338633878
UNKNOWN                 
1 85010U          25364.09395772  .00001487  00000+0  15968-2 0  9996
2 85010  99.2483 225.4731 0025077 209.7149 304.2048 13.75092612606300
UNKNOWN                 
1 85015U          25361.75484913  .00000722  00000+0  14884-3 0  9995
2 85015  74.0489   9.4705 0016703 272.8549  87.0706 14.62307629644802
UNKNOWN                 
1 85023U          26002.02416959  .00053391  00000+0  77658-2 0  9999
2 85023  99.8485  26.8785 0001717 244.8142 144.7674 14.75649464631823
UNKNOWN                 
1 85027U          26002.53902295  .00000262  00000+0  32285-3 0  9999
2 85027  66.0419  50.5751 0175643 179.7628 180.3551 13.74257201607478
UNKNOWN                 
1 85047U          26001.87893217  .00023116  00000+0  36355-1 0  9993
2 85047 102.1827 336.5384 0162822 332.4775  26.7796 13.44867747579369
UNKNOWN                 
1 85061U          25364.90384299  .00004828  00000+0  19470-1 0  9997
2 85061 102.3940 350.3665 0255472 156.4897 234.1420 12.77124966558104
UNKNOWN                 
1 85100U          25362.29963697  .00000454  00000+0  15035-3 0  9992
2 85100  74.0437 194.0195 0011568  56.0514 126.3561 14.40722397635582
UNKNOWN                 
1 85106U          26002.24673296  .00001037  00000+0  11769-2 0  9995
2 85106 100.0520 109.1123 0008762 320.7033  68.7961 13.72931317605889
UNKNOWN                 
1 85151U          26001.59380496  .00041327  00000+0  54941-2 0  9994
2 85151  98.4039 231.5146 0009721  64.7999 295.4218 14.79544141482465
UNKNOWN                 
1 85210U          26002.35486860  .00001853  00000+0  17819-2 0  9990
2 85210  99.8559 148.9067 0217539 261.2108 126.0452 13.71582234604988
UNKNOWN                 
1 85217U          26001.70459138  .00003764  00000+0  99307-3 0  9999
2 85217  98.0303  99.7978 0208565  68.2843 294.0407 14.37307647630720
